#aV2006  8  4  0  0   .00000000      96 DD+AD WGS84 FIT  NGA
## 1386 432000.00000000   900.00000000 53951  .0000000000000
+   29     1  2  3  4  5  6  7  8  9 10 11 13 14 15 16 17 18
+         19 20 21 22 23 24 25 26 27 28 29 30  0  0  0  0  0
+          0  0  0  0  0  0  0  0  0  0  0  0  0  0  0  0  0
+          0  0  0  0  0  0  0  0  0  0  0  0  0  0  0  0  0
+          0  0  0  0  0  0  0  0  0  0  0  0  0  0  0  0  0
++         0  0  0  0  0  0  0  0  0  0  0  0  0  0  0  0  0
++         0  0  0  0  0  0  0  0  0  0  0  0  0  0  0  0  0
++         0  0  0  0  0  0  0  0  0  0  0  0  0  0  0  0  0
++         0  0  0  0  0  0  0  0  0  0  0  0  0  0  0  0  0
++         0  0  0  0  0  0  0  0  0  0  0  0  0  0  0  0  0
%c cc cc ccc ccc cccc cccc cccc cccc ccccc ccccc ccccc ccccc
%c cc cc ccc ccc cccc cccc cccc cccc ccccc ccccc ccccc ccccc
%f  0.0000000  0.000000000  0.00000000000  0.000000000000000
%f  0.0000000  0.000000000  0.00000000000  0.000000000000000
%i    0    0    0    0      0      0      0      0         0
%i    0    0    0    0      0      0      0      0         0
/*      NGA, ST. LOUIS,MO.                                  
/*   EPHEMERIS COMPUTED FROM  3 DAYS OF DATA                
/* CCCCCCCCCCCCCCCCCCCCCCCCCCCCCCCCCCCCCCCCCCCCCCCCCCCCCCCCC
/* CCCCCCCCCCCCCCCCCCCCCCCCCCCCCCCCCCCCCCCCCCCCCCCCCCCCCCCCC
*  2006  8  4  6 30   .00000000                                                 
P  1  -8756.482693  17810.625392  17816.181826     69.077845                    
V  1 -20207.874446   9250.721811 -19446.516632       .020645                    
P  2  -3485.081530 -17858.865107  19177.696536     20.542482                    
V  2  22211.278120  11214.231825  14075.962704       .039705                    
P  3  -2125.479121  18754.516739 -18739.537812    188.136990                    
V  3 -20489.624402  12029.809402  14812.295602      -.224666                    
P  4  10185.121517 -11831.435466  21471.261333    287.285269                    
V  4  23365.296422  14260.365951  -2873.484190       .069290                    
P  5 -12798.330228 -17259.664199  15507.447422    274.766184                    
V  5    742.978606 -20193.574051 -21405.462766       .258467                    
P  6 -23448.963832   4037.176680  12068.064442    596.606941                    
V  6  11242.079969 -10442.244835  25690.709507       .031888                    
P  7 -17895.605779  18176.987670  -7259.791625    538.049154                    
V  7  -9950.921197   2477.152462  29241.172919      -.021315                    
P  8  17475.417238  -4740.211226 -19715.101478    -74.685782                    
V  8  20254.744470  13907.882303  14310.621878      -.014748                    
P  9 -20178.978790 -16244.212205  -7029.690913     30.585713                    
V  9   8270.309630   1738.858164 -29938.149505       .015178                    
P 10  -1114.341303 -26253.071330  -2562.754008     87.581895                    
V 10   2736.319743  -3095.680694  32013.486106       .005424                    
P 11  22733.102196  13140.664319  -4886.827310    343.038575                    
V 11  -7351.844363   1896.019347 -29259.974660       .020403                    
P 13  23562.750066  -4311.955582  11329.767666     82.680279                    
V 13 -11994.760113   8312.404553  27920.281201       .031099                    
P 14 -20847.069515  15572.023342   5218.063368     -8.386659                    
V 14  -6677.260202   1444.901593 -31445.158166       .008192                    
P 15 -17155.453347   5250.213693 -19858.189355    656.851079                    
V 15 -19903.781286 -14820.674815  12955.359052       .069544                    
P 16  -1958.489112  26325.641322   2368.288470     61.847770                    
V 16  -2802.953013  -2949.866523  31686.767216       .029658                    
P 17  21116.364384 -15466.895696   4175.385013     99.326127                    
V 17   6053.985100   -138.890624 -31205.089866      -.008798                    
P 18 -15221.002307   3097.451202 -21402.028064   -245.250242                    
V 18    651.454352 -27485.785251  -4732.741070      -.011541                    
P 19   7961.473292  13031.771040 -21622.669916      5.172079                    
V 19 -24779.037437  12442.478870  -1555.217866       .026531                    
P 20  13348.525650  13081.952557  18789.826132    -23.559213                    
V 20  -1277.688277  24065.033251 -15744.656367       .003149                    
P 21 -22467.190447  -1797.028234 -14391.098021     45.490286                    
V 21 -14266.117681 -11569.983409  23047.882676       .020870                    
P 22 -12019.463097  17629.948090 -15647.980015    122.451786                    
V 22  -1068.123061 -20261.013288 -21810.933009       .032911                    
P 23  17740.066523   4929.822453  19112.902883    137.915041                    
V 23 -20538.794507  13206.277019  15403.954196      -.001926                    
P 24  17046.544690  -5572.906113  19914.675241     25.802109                    
V 24  20152.118983  14312.526610 -13129.550726       .028954                    
P 25  -3106.357063  15500.261826  21728.054648    272.866428                    
V 25 -24422.993847 -10778.954836   4417.660562       .719020                    
P 26  -6323.194649 -13330.913821 -22472.935563   -203.433412                    
V 26  24343.953389 -12779.598321   1304.950710      -.137239                    
P 27  23398.206514   2277.282174 -12051.107170     61.205765                    
V 27  13401.074431   9311.630756  26144.321449       .018780                    
P 28  12976.212680 -13847.962627 -18142.916550     21.695531                    
V 28   1291.005698  23799.071089 -17308.652698      -.008174                    
P 29  -2719.798997 -14899.779176 -21551.710715    632.590834                    
V 29  24346.218053 -13602.702374   6545.518456       .014451                    
P 30 -15391.555888  -3090.791316  21146.657153      5.750677                    
V 30   -518.471004 -27573.305977  -4231.508540       .012604                    
EOF
